[{"OBJECT_NAME":"STARLINK-5681","OBJECT_ID":"2023-015W","EPOCH":"2026-03-09T22:00:01.999584","MEAN_MOTION":15.03925616,"ECCENTRICITY":8.484e-5,"INCLINATION":43.0013,"RA_OF_ASC_NODE":324.6279,"ARG_OF_PERICENTER":316.9401,"MEAN_ANOMALY":259.5723,"EPHEMERIS_TYPE":0,"CLASSIFICATION_TYPE":"U","NORAD_CAT_ID":55469,"ELEMENT_SET_NO":999,"REV_AT_EPOCH":577,"BSTAR":0.0013891013,"MEAN_MOTION_DOT":0.00019319,"MEAN_MOTION_DDOT":0},{"OBJECT_NAME":"ION SCV-014","OBJECT_ID":"2025-009X","EPOCH":"2026-03-09T17:13:35.291712","MEAN_MOTION":15.0488465,"ECCENTRICITY":0.00064503,"INCLINATION":97.4923,"RA_OF_ASC_NODE":144.8636,"ARG_OF_PERICENTER":112.6479,"MEAN_ANOMALY":247.543,"EPHEMERIS_TYPE":0,"CLASSIFICATION_TYPE":"U","NORAD_CAT_ID":62630,"ELEMENT_SET_NO":999,"REV_AT_EPOCH":6302,"BSTAR":0.0001322874,"MEAN_MOTION_DOT":1.812e-5,"MEAN_MOTION_DDOT":0}]
